STARLINK-30792
1 58220U 23170Q   26090.66954465  .00033941  00000+0  23553-2 0  9991
2 58220  42.9997  75.8112 0001775 135.9262 224.1723 15.05006720133599
